{
  "type": "FeatureCollection",
  "features": [
    {
      "type": "Feature",
      "properties": {
        "norad_id": 67124,
        "name": "STARLINK-36195",
        "group": "last-30-days",
        "lat": -39.86672657587294,
        "lon": 175.80232665218176,
        "alt_km": 322.0333595799657,
        "timestamp": "2025-12-25T07:41:08.453049+00:00",
        "meta_object_name": "STARLINK-36195",
        "meta_object_id": "2025-299Y",
        "meta_epoch": "2025-12-24T22:00:03.000096",
        "meta_mean_motion": 15.85299496,
        "meta_eccentricity": 0.00014333,
        "meta_inclination": 42.9974,
        "meta_ra_of_asc_node": 241.9644,
        "meta_arg_of_pericenter": 269.3514,
        "meta_mean_anomaly": 235.9022,
        "meta_ephemeris_type": 0,
        "meta_classification_type": "U",
        "meta_norad_cat_id": 67124,
        "meta_element_set_no": 999,
        "meta_rev_at_epoch": 276,
        "meta_bstar": -0.0084188643,
        "meta_mean_motion_dot": -0.01784893,
        "meta_mean_motion_ddot": 0,
        "tle_line1": "1 67124U 25299Y   25358.91670139 -.01784893  00000+0 -84189-2 0  9999",
        "tle_line2": "2 67124  42.9974 241.9644 0001433 269.3514 235.9022 15.85299496  2764"
      },
      "geometry": {
        "type": "Point",
        "coordinates": [
          175.80232665218176,
          -39.86672657587294
        ]
      }
    },
    {
      "type": "Feature",
      "properties": {
        "norad_id": 67125,
        "name": "STARLINK-36219",
        "group": "last-30-days",
        "lat": -39.37518529167439,
        "lon": 177.73570328053208,
        "alt_km": 321.9578626469538,
        "timestamp": "2025-12-25T07:41:08.453061+00:00",
        "meta_object_name": "STARLINK-36219",
        "meta_object_id": "2025-299Z",
        "meta_epoch": "2025-12-24T22:00:03.000096",
        "meta_mean_motion": 15.85301666,
        "meta_eccentricity": 0.00014322,
        "meta_inclination": 42.997,
        "meta_ra_of_asc_node": 241.96,
        "meta_arg_of_pericenter": 272.9361,
        "meta_mean_anomaly": 233.8811,
        "meta_ephemeris_type": 0,
        "meta_classification_type": "U",
        "meta_norad_cat_id": 67125,
        "meta_element_set_no": 999,
        "meta_rev_at_epoch": 276,
        "meta_bstar": -0.0083596887,
        "meta_mean_motion_dot": -0.01774332,
        "meta_mean_motion_ddot": 0,
        "tle_line1": "1 67125U 25299Z   25358.91670139 -.01774332  00000+0 -83597-2 0  9999",
        "tle_line2": "2 67125  42.9970 241.9600 0001432 272.9361 233.8811 15.85301666  2768"
      },
      "geometry": {
        "type": "Point",
        "coordinates": [
          177.73570328053208,
          -39.37518529167439
        ]
      }
    },
    {
      "type": "Feature",
      "properties": {
        "norad_id": 67126,
        "name": "STARLINK-36223",
        "group": "last-30-days",
        "lat": -38.754509369541374,
        "lon": 179.9837468196834,
        "alt_km": 322.0570151508282,
        "timestamp": "2025-12-25T07:41:08.453071+00:00",
        "meta_object_name": "STARLINK-36223",
        "meta_object_id": "2025-299AA",
        "meta_epoch": "2025-12-24T22:00:03.000096",
        "meta_mean_motion": 15.85312885,
        "meta_eccentricity": 0.00013482,
        "meta_inclination": 42.9971,
        "meta_ra_of_asc_node": 241.9555,
        "meta_arg_of_pericenter": 266.8678,
        "meta_mean_anomaly": 241.7971,
        "meta_ephemeris_type": 0,
        "meta_classification_type": "U",
        "meta_norad_cat_id": 67126,
        "meta_element_set_no": 999,
        "meta_rev_at_epoch": 276,
        "meta_bstar": -0.0084152555,
        "meta_mean_motion_dot": -0.01785152,
        "meta_mean_motion_ddot": 0,
        "tle_line1": "1 67126U 25299AA  25358.91670139 -.01785152  00000+0 -84153-2 0  9991",
        "tle_line2": "2 67126  42.9971 241.9555 0001348 266.8678 241.7971 15.85312885  2768"
      },
      "geometry": {
        "type": "Point",
        "coordinates": [
          179.9837468196834,
          -38.754509369541374
        ]
      }
    },
    {
      "type": "Feature",
      "properties": {
        "norad_id": 67127,
        "name": "STARLINK-36164",
        "group": "last-30-days",
        "lat": -38.150438086556626,
        "lon": -177.99836930258624,
        "alt_km": 322.01410544729424,
        "timestamp": "2025-12-25T07:41:08.453081+00:00",
        "meta_object_name": "STARLINK-36164",
        "meta_object_id": "2025-299AB",
        "meta_epoch": "2025-12-24T22:00:03.000096",
        "meta_mean_motion": 15.85314835,
        "meta_eccentricity": 0.00013497,
        "meta_inclination": 42.9971,
        "meta_ra_of_asc_node": 241.9513,
        "meta_arg_of_pericenter": 267.2203,
        "meta_mean_anomaly": 243.1331,
        "meta_ephemeris_type": 0,
        "meta_classification_type": "U",
        "meta_norad_cat_id": 67127,
        "meta_element_set_no": 999,
        "meta_rev_at_epoch": 276,
        "meta_bstar": -0.0083736689,
        "meta_mean_motion_dot": -0.01777764,
        "meta_mean_motion_ddot": 0,
        "tle_line1": "1 67127U 25299AB  25358.91670139 -.01777764  00000+0 -83737-2 0  9999",
        "tle_line2": "2 67127  42.9971 241.9513 0001349 267.2203 243.1331 15.85314835  2766"
      },
      "geometry": {
        "type": "Point",
        "coordinates": [
          -177.99836930258624,
          -38.150438086556626
        ]
      }
    },
    {
      "type": "Feature",
      "properties": {
        "norad_id": 67128,
        "name": "STARLINK-35685",
        "group": "last-30-days",
        "lat": -36.311381315522425,
        "lon": -172.6109387762119,
        "alt_km": 322.0695392087955,
        "timestamp": "2025-12-25T07:41:08.453091+00:00",
        "meta_object_name": "STARLINK-35685",
        "meta_object_id": "2025-299AC",
        "meta_epoch": "2025-12-24T22:00:03.000096",
        "meta_mean_motion": 15.85289871,
        "meta_eccentricity": 0.00013767,
        "meta_inclination": 42.9969,
        "meta_ra_of_asc_node": 241.939,
        "meta_arg_of_pericenter": 264.2229,
        "meta_mean_anomaly": 250.847,
        "meta_ephemeris_type": 0,
        "meta_classification_type": "U",
        "meta_norad_cat_id": 67128,
        "meta_element_set_no": 999,
        "meta_rev_at_epoch": 276,
        "meta_bstar": -0.0083910826,
        "meta_mean_motion_dot": -0.01779085,
        "meta_mean_motion_ddot": 0,
        "tle_line1": "1 67128U 25299AC  25358.91670139 -.01779085  00000+0 -83911-2 0  9992",
        "tle_line2": "2 67128  42.9969 241.9390 0001376 264.2229 250.8470 15.85289871  2762"
      },
      "geometry": {
        "type": "Point",
        "coordinates": [
          -172.6109387762119,
          -36.311381315522425
        ]
      }
    },
    {
      "type": "Feature",
      "properties": {
        "norad_id": 67129,
        "name": "STARLINK-36214",
        "group": "last-30-days",
        "lat": -37.41253337019895,
        "lon": -175.71719679070256,
        "alt_km": 321.93043924463836,
        "timestamp": "2025-12-25T07:41:08.453103+00:00",
        "meta_object_name": "STARLINK-36214",
        "meta_object_id": "2025-299AD",
        "meta_epoch": "2025-12-24T22:00:03.000096",
        "meta_mean_motion": 15.85314988,
        "meta_eccentricity": 0.00013488,
        "meta_inclination": 42.997,
        "meta_ra_of_asc_node": 241.9461,
        "meta_arg_of_pericenter": 273.9926,
        "meta_mean_anomaly": 238.3189,
        "meta_ephemeris_type": 0,
        "meta_classification_type": "U",
        "meta_norad_cat_id": 67129,
        "meta_element_set_no": 999,
        "meta_rev_at_epoch": 276,
        "meta_bstar": -0.0083864711,
        "meta_mean_motion_dot": -0.01780095,
        "meta_mean_motion_ddot": 0,
        "tle_line1": "1 67129U 25299AD  25358.91670139 -.01780095  00000+0 -83865-2 0  9994",
        "tle_line2": "2 67129  42.9970 241.9461 0001348 273.9926 238.3189 15.85314988  2760"
      },
      "geometry": {
        "type": "Point",
        "coordinates": [
          -175.71719679070256,
          -37.41253337019895
        ]
      }
    },
    {
      "type": "Feature",
      "properties": {
        "norad_id": 67130,
        "name": "STARLINK-36194",
        "group": "last-30-days",
        "lat": -34.22588681559546,
        "lon": -167.44934367853313,
        "alt_km": 322.0618505402126,
        "timestamp": "2025-12-25T07:41:08.453115+00:00",
        "meta_object_name": "STARLINK-36194",
        "meta_object_id": "2025-299AE",
        "meta_epoch": "2025-12-24T22:00:03.000096",
        "meta_mean_motion": 15.85193605,
        "meta_eccentricity": 0.00014562,
        "meta_inclination": 42.997,
        "meta_ra_of_asc_node": 241.9286,
        "meta_arg_of_pericenter": 276.2575,
        "meta_mean_anomaly": 243.6667,
        "meta_ephemeris_type": 0,
        "meta_classification_type": "U",
        "meta_norad_cat_id": 67130,
        "meta_element_set_no": 999,
        "meta_rev_at_epoch": 276,
        "meta_bstar": -0.0084062351,
        "meta_mean_motion_dot": -0.01774729,
        "meta_mean_motion_ddot": 0,
        "tle_line1": "1 67130U 25299AE  25358.91670139 -.01774729  00000+0 -84062-2 0  9993",
        "tle_line2": "2 67130  42.9970 241.9286 0001456 276.2575 243.6667 15.85193605  2764"
      },
      "geometry": {
        "type": "Point",
        "coordinates": [
          -167.44934367853313,
          -34.22588681559546
        ]
      }
    }
  ]
}